{
  "type": "FeatureCollection",
  "features": [
    {
      "type": "Feature",
      "properties": {
        "norad_id": 24946,
        "name": "IRIDIUM 33",
        "group": "iridium-33-debris",
        "lat": 13.118340905458416,
        "lon": -117.45155122156113,
        "alt_km": 770.1686242354035,
        "timestamp": "2025-12-24T05:51:19.993812+00:00",
        "meta_object_name": "IRIDIUM 33",
        "meta_object_id": "1997-051C",
        "meta_epoch": "2025-12-23T15:41:35.917152",
        "meta_mean_motion": 14.35044477,
        "meta_eccentricity": 0.00083283,
        "meta_inclination": 86.3859,
        "meta_ra_of_asc_node": 63.6401,
        "meta_arg_of_pericenter": 164.7579,
        "meta_mean_anomaly": 195.387,
        "meta_ephemeris_type": 0,
        "meta_classification_type": "U",
        "meta_norad_cat_id": 24946,
        "meta_element_set_no": 999,
        "meta_rev_at_epoch": 47991,
        "meta_bstar": 0.0001025615,
        "meta_mean_motion_dot": 3.12e-06,
        "meta_mean_motion_ddot": 0,
        "tle_line1": "1 24946U 97051C   25357.65388793  .00000312  00000+0  10256-3 0  9990",
        "tle_line2": "2 24946  86.3859  63.6401 0008328 164.7579 195.3870 14.35044477479918"
      },
      "geometry": {
        "type": "Point",
        "coordinates": [
          -117.45155122156113,
          13.118340905458416
        ]
      }
    },
    {
      "type": "Feature",
      "properties": {
        "norad_id": 33773,
        "name": "IRIDIUM 33 DEB",
        "group": "iridium-33-debris",
        "lat": 75.56215499316467,
        "lon": -138.43956646896066,
        "alt_km": 731.3037776588199,
        "timestamp": "2025-12-24T05:51:19.993856+00:00",
        "meta_object_name": "IRIDIUM 33 DEB",
        "meta_object_id": "1997-051L",
        "meta_epoch": "2025-12-23T06:04:51.359808",
        "meta_mean_motion": 14.43278189,
        "meta_eccentricity": 0.00132106,
        "meta_inclination": 86.4,
        "meta_ra_of_asc_node": 56.134,
        "meta_arg_of_pericenter": 116.1124,
        "meta_mean_anomaly": 244.1438,
        "meta_ephemeris_type": 0,
        "meta_classification_type": "U",
        "meta_norad_cat_id": 33773,
        "meta_element_set_no": 999,
        "meta_rev_at_epoch": 88499,
        "meta_bstar": 0.00027605161,
        "meta_mean_motion_dot": 9.5e-06,
        "meta_mean_motion_ddot": 0,
        "tle_line1": "1 33773U 97051L   25357.25337222  .00000950  00000+0  27605-3 0  9999",
        "tle_line2": "2 33773  86.4000  56.1340 0013210 116.1124 244.1438 14.43278189884996"
      },
      "geometry": {
        "type": "Point",
        "coordinates": [
          -138.43956646896066,
          75.56215499316467
        ]
      }
    },
    {
      "type": "Feature",
      "properties": {
        "norad_id": 33775,
        "name": "IRIDIUM 33 DEB",
        "group": "iridium-33-debris",
        "lat": 66.16834137136769,
        "lon": -143.63861831829564,
        "alt_km": 736.4268941959663,
        "timestamp": "2025-12-24T05:51:19.993873+00:00",
        "meta_object_name": "IRIDIUM 33 DEB",
        "meta_object_id": "1997-051N",
        "meta_epoch": "2025-12-23T13:17:41.922816",
        "meta_mean_motion": 14.41490246,
        "meta_eccentricity": 0.00152222,
        "meta_inclination": 86.3625,
        "meta_ra_of_asc_node": 44.9362,
        "meta_arg_of_pericenter": 122.4462,
        "meta_mean_anomaly": 12.5884,
        "meta_ephemeris_type": 0,
        "meta_classification_type": "U",
        "meta_norad_cat_id": 33775,
        "meta_element_set_no": 999,
        "meta_rev_at_epoch": 88296,
        "meta_bstar": 0.00028606428,
        "meta_mean_motion_dot": 9.49e-06,
        "meta_mean_motion_ddot": 0,
        "tle_line1": "1 33775U 97051N   25357.55395744  .00000949  00000+0  28606-3 0  9997",
        "tle_line2": "2 33775  86.3625  44.9362 0015222 122.4462  12.5884 14.41490246882964"
      },
      "geometry": {
        "type": "Point",
        "coordinates": [
          -143.63861831829564,
          66.16834137136769
        ]
      }
    },
    {
      "type": "Feature",
      "properties": {
        "norad_id": 33776,
        "name": "IRIDIUM 33 DEB",
        "group": "iridium-33-debris",
        "lat": -29.608855117013757,
        "lon": -102.0068850834927,
        "alt_km": 763.9968557437678,
        "timestamp": "2025-12-24T05:51:19.993887+00:00",
        "meta_object_name": "IRIDIUM 33 DEB",
        "meta_object_id": "1997-051P",
        "meta_epoch": "2025-12-23T23:00:23.365728",
        "meta_mean_motion": 14.38253879,
        "meta_eccentricity": 0.00156163,
        "meta_inclination": 86.403,
        "meta_ra_of_asc_node": 76.0644,
        "meta_arg_of_pericenter": 154.6718,
        "meta_mean_anomaly": 18.0774,
        "meta_ephemeris_type": 0,
        "meta_classification_type": "U",
        "meta_norad_cat_id": 33776,
        "meta_element_set_no": 999,
        "meta_rev_at_epoch": 88243,
        "meta_bstar": 0.00026165464,
        "meta_mean_motion_dot": 8.16e-06,
        "meta_mean_motion_ddot": 0,
        "tle_line1": "1 33776U 97051P   25357.95860377  .00000816  00000+0  26165-3 0  9992",
        "tle_line2": "2 33776  86.4030  76.0644 0015616 154.6718  18.0774 14.38253879882439"
      },
      "geometry": {
        "type": "Point",
        "coordinates": [
          -102.0068850834927,
          -29.608855117013757
        ]
      }
    },
    {
      "type": "Feature",
      "properties": {
        "norad_id": 33777,
        "name": "IRIDIUM 33 DEB",
        "group": "iridium-33-debris",
        "lat": -3.072779359754827,
        "lon": 30.003340571761367,
        "alt_km": 714.5893683927725,
        "timestamp": "2025-12-24T05:51:19.993900+00:00",
        "meta_object_name": "IRIDIUM 33 DEB",
        "meta_object_id": "1997-051Q",
        "meta_epoch": "2025-12-23T11:43:19.900128",
        "meta_mean_motion": 14.55683855,
        "meta_eccentricity": 0.00061402,
        "meta_inclination": 86.3772,
        "meta_ra_of_asc_node": 30.5269,
        "meta_arg_of_pericenter": 203.1563,
        "meta_mean_anomaly": 156.9369,
        "meta_ephemeris_type": 0,
        "meta_classification_type": "U",
        "meta_norad_cat_id": 33777,
        "meta_element_set_no": 999,
        "meta_rev_at_epoch": 88690,
        "meta_bstar": 0.00078836725,
        "meta_mean_motion_dot": 3.465e-05,
        "meta_mean_motion_ddot": 0,
        "tle_line1": "1 33777U 97051Q   25357.48842477  .00003465  00000+0  78837-3 0  9998",
        "tle_line2": "2 33777  86.3772  30.5269 0006140 203.1563 156.9369 14.55683855886908"
      },
      "geometry": {
        "type": "Point",
        "coordinates": [
          30.003340571761367,
          -3.072779359754827
        ]
      }
    },
    {
      "type": "Feature",
      "properties": {
        "norad_id": 33850,
        "name": "IRIDIUM 33 DEB",
        "group": "iridium-33-debris",
        "lat": 57.23437043257877,
        "lon": -160.47423780489333,
        "alt_km": 736.5109140613013,
        "timestamp": "2025-12-24T05:51:19.993912+00:00",
        "meta_object_name": "IRIDIUM 33 DEB",
        "meta_object_id": "1997-051T",
        "meta_epoch": "2025-12-23T19:53:00.127680",
        "meta_mean_motion": 14.42172419,
        "meta_eccentricity": 0.00132244,
        "meta_inclination": 86.3407,
        "meta_ra_of_asc_node": 25.4109,
        "meta_arg_of_pericenter": 128.0286,
        "meta_mean_anomaly": 358.6367,
        "meta_ephemeris_type": 0,
        "meta_classification_type": "U",
        "meta_norad_cat_id": 33850,
        "meta_element_set_no": 999,
        "meta_rev_at_epoch": 88312,
        "meta_bstar": 0.00036619664,
        "meta_mean_motion_dot": 1.226e-05,
        "meta_mean_motion_ddot": 0,
        "tle_line1": "1 33850U 97051T   25357.82847370  .00001226  00000+0  36620-3 0  9992",
        "tle_line2": "2 33850  86.3407  25.4109 0013224 128.0286 358.6367 14.42172419883124"
      },
      "geometry": {
        "type": "Point",
        "coordinates": [
          -160.47423780489333,
          57.23437043257877
        ]
      }
    },
    {
      "type": "Feature",
      "properties": {
        "norad_id": 33853,
        "name": "IRIDIUM 33 DEB",
        "group": "iridium-33-debris",
        "lat": 16.617832982076283,
        "lon": 163.56940610450332,
        "alt_km": 775.8871519810882,
        "timestamp": "2025-12-24T05:51:19.993924+00:00",
        "meta_object_name": "IRIDIUM 33 DEB",
        "meta_object_id": "1997-051W",
        "meta_epoch": "2025-12-23T22:20:36.162240",
        "meta_mean_motion": 13.99115902,
        "meta_eccentricity": 0.02075947,
        "meta_inclination": 86.0002,
        "meta_ra_of_asc_node": 344.9031,
        "meta_arg_of_pericenter": 201.3048,
        "meta_mean_anomaly": 187.7421,
        "meta_ephemeris_type": 0,
        "meta_classification_type": "U",
        "meta_norad_cat_id": 33853,
        "meta_element_set_no": 999,
        "meta_rev_at_epoch": 85502,
        "meta_bstar": 0.0011647054,
        "meta_mean_motion_dot": 2.046e-05,
        "meta_mean_motion_ddot": 0,
        "tle_line1": "1 33853U 97051W   25357.93097410  .00002046  00000+0  11647-2 0  9991",
        "tle_line2": "2 33853  86.0002 344.9031 0207594 201.3048 187.7421 13.99115902855029"
      },
      "geometry": {
        "type": "Point",
        "coordinates": [
          163.56940610450332,
          16.617832982076283
        ]
      }
    }
  ]
}